[{"OBJECT_NAME":"STARLINK-3694","OBJECT_ID":"2022-025B","EPOCH":"2026-03-10T00:00:02.999808","MEAN_MOTION":15.13116065,"ECCENTRICITY":0.00013443,"INCLINATION":53.0809,"RA_OF_ASC_NODE":34.3645,"ARG_OF_PERICENTER":58.4211,"MEAN_ANOMALY":355.3419,"EPHEMERIS_TYPE":0,"CLASSIFICATION_TYPE":"U","NORAD_CAT_ID":51957,"ELEMENT_SET_NO":999,"REV_AT_EPOCH":578,"BSTAR":0.002964574,"MEAN_MOTION_DOT":0.00053212,"MEAN_MOTION_DDOT":0},{"OBJECT_NAME":"DELTA 1 DEB","OBJECT_ID":"1977-065ED","EPOCH":"2026-03-08T13:54:07.358112","MEAN_MOTION":13.25885407,"ECCENTRICITY":0.08433341,"INCLINATION":29.0608,"RA_OF_ASC_NODE":1.9535,"ARG_OF_PERICENTER":35.0136,"MEAN_ANOMALY":330.3034,"EPHEMERIS_TYPE":0,"CLASSIFICATION_TYPE":"U","NORAD_CAT_ID":10471,"ELEMENT_SET_NO":999,"REV_AT_EPOCH":34001,"BSTAR":0.00062177821,"MEAN_MOTION_DOT":2.167e-5,"MEAN_MOTION_DDOT":0}]
